{
  "norad_id": 40286,
  "name": "SJ-11-08",
  "history": [
    {
      "epoch": "2026-03-28T22:15:16.647264Z",
      "apogee_km": 682.8801520019688,
      "perigee_km": 664.4184344505766,
      "latitude_deg": 2.6775915497191633e-05,
      "longitude_deg": 71.30533161900951,
      "height_km": 681.303197878748,
      "semi_major_axis_km": 7051.786293226272,
      "eccentricity": 0.00130901,
      "inclination_deg": 98.3375,
      "raan_deg": 231.4654,
      "arg_perigee_deg": 120.5322,
      "mean_anomaly_deg": 239.7175,
      "mean_motion_rev_day": 14.66067777
    },
    {
      "epoch": "2026-03-29T04:48:23.992416Z",
      "apogee_km": 682.9051087279922,
      "perigee_km": 664.3969858191176,
      "latitude_deg": -2.7493725485708102e-06,
      "longitude_deg": -26.967251538374878,
      "height_km": 681.2203899450502,
      "semi_major_axis_km": 7051.788047273555,
      "eccentricity": 0.0013123,
      "inclination_deg": 98.3375,
      "raan_deg": 231.7425,
      "arg_perigee_deg": 119.8445,
      "mean_anomaly_deg": 240.4064,
      "mean_motion_rev_day": 14.6606723
    }
  ]
}